EUTELSAT 9B             
1 41310U 16005A   26061.73254126  .00000045  00000+0  00000+0 0  9993
2 41310   0.0443  72.2837 0004512 247.5077 113.4073  1.00273243 37040
EUTELSAT 65 WEST A      
1 41382U 16014A   26061.62634582 -.00000293  00000+0  00000+0 0  9994
2 41382   0.0679  38.9205 0002268 294.7961 346.9649  1.00272762 36462
EUTELSAT 117 WEST B     
1 41589U 16038B   26061.70758115 -.00000028  00000+0  00000+0 0  9993
2 41589   0.0344  10.3703 0000068 169.5452 118.2901  1.00271396 35593
EUTELSAT 172B           
1 42741U 17029B   26061.55100431 -.00000023  00000+0  00000+0 0  9995
2 42741   0.0189 151.7042 0000184 131.3792 247.5727  1.00271409 32673
EUTELSAT 7C             
1 44334U 19034B   26061.39350299  .00000030  00000+0  00000+0 0  9991
2 44334   0.0725 178.9133 0003370 147.8289 342.0592  1.00270229  5764
EUTELSAT 5 WEST B       
1 44624U 19067A   26061.72976792 -.00000059  00000+0  00000+0 0  9990
2 44624   0.0980 308.3073 0003199  40.6033  69.2675  1.00272251 23360
EUTELSAT KONNECT        
1 45027U 20005B   26061.58941935  .00000032  00000+0  00000+0 0  9997
2 45027   0.0686  97.5210 0001032 221.0529  61.1603  1.00271015 23268
EUTELSAT QUANTUM        
1 49056U 21069B   26061.52623905  .00000000  00000+0  00000+0 0  9997
2 49056   0.0187 128.2806 0002900 213.5571  55.6294  1.00271278 16853
EUTELSAT KONNECT VHTS   
1 53765U 22110A   26061.73132794  .00000000  00000+0  00000+0 0  9991
2 53765   0.0577 102.7330 0002870 211.5116 112.2093  1.00270548  5760
EUTELSAT HOTBIRD 13F    
1 54048U 22134A   26061.73332128  .00000070  00000+0  00000+0 0  9992
2 54048   0.0592 296.0713 0002118  60.3674  81.0436  1.00271838 12303
EUTELSAT HOTBIRD 13G    
1 54225U 22146A   26061.66204637  .00000070  00000+0  00000+0 0  9997
2 54225   0.0496 233.9645 0001880 311.1412 226.6552  1.00271894  6399
EUTELSAT 10B            
1 54259U 22157A   26061.73271459  .00000051  00000+0  00000+0 0  9999
2 54259   0.0572 101.9131 0001105  23.3577 308.9654  1.00267461 11959
EUTELSAT 36D            
1 59346U 24059A   26061.73782796  .00000139  00000+0  00000+0 0  9992
2 59346   0.0129 136.6074 0000317 175.1047 150.2665  1.00269961  7088
