[{"OBJECT_NAME":"EUTELSAT 9B","OBJECT_ID":"2016-005A","EPOCH":"2026-03-02T17:34:51.564864","MEAN_MOTION":1.00273243,"ECCENTRICITY":0.0004512,"INCLINATION":0.0443,"RA_OF_ASC_NODE":72.2837,"ARG_OF_PERICENTER":247.5077,"MEAN_ANOMALY":113.4073,"EPHEMERIS_TYPE":0,"CLASSIFICATION_TYPE":"U","NORAD_CAT_ID":41310,"ELEMENT_SET_NO":999,"REV_AT_EPOCH":3704,"BSTAR":0,"MEAN_MOTION_DOT":4.5e-7,"MEAN_MOTION_DDOT":0},{"OBJECT_NAME":"EUTELSAT 65 WEST A","OBJECT_ID":"2016-014A","EPOCH":"2026-03-02T15:01:56.278848","MEAN_MOTION":1.00272762,"ECCENTRICITY":0.0002268,"INCLINATION":0.0679,"RA_OF_ASC_NODE":38.9205,"ARG_OF_PERICENTER":294.7961,"MEAN_ANOMALY":346.9649,"EPHEMERIS_TYPE":0,"CLASSIFICATION_TYPE":"U","NORAD_CAT_ID":41382,"ELEMENT_SET_NO":999,"REV_AT_EPOCH":3646,"BSTAR":0,"MEAN_MOTION_DOT":-2.93e-6,"MEAN_MOTION_DDOT":0},{"OBJECT_NAME":"EUTELSAT 117 WEST B","OBJECT_ID":"2016-038B","EPOCH":"2026-03-02T16:58:55.011360","MEAN_MOTION":1.00271396,"ECCENTRICITY":6.8e-6,"INCLINATION":0.0344,"RA_OF_ASC_NODE":10.3703,"ARG_OF_PERICENTER":169.5452,"MEAN_ANOMALY":118.2901,"EPHEMERIS_TYPE":0,"CLASSIFICATION_TYPE":"U","NORAD_CAT_ID":41589,"ELEMENT_SET_NO":999,"REV_AT_EPOCH":3559,"BSTAR":0,"MEAN_MOTION_DOT":-2.8e-7,"MEAN_MOTION_DDOT":0},{"OBJECT_NAME":"EUTELSAT 172B","OBJECT_ID":"2017-029B","EPOCH":"2026-03-02T13:13:26.772384","MEAN_MOTION":1.00271409,"ECCENTRICITY":1.84e-5,"INCLINATION":0.0189,"RA_OF_ASC_NODE":151.7042,"ARG_OF_PERICENTER":131.3792,"MEAN_ANOMALY":247.5727,"EPHEMERIS_TYPE":0,"CLASSIFICATION_TYPE":"U","NORAD_CAT_ID":42741,"ELEMENT_SET_NO":999,"REV_AT_EPOCH":3267,"BSTAR":0,"MEAN_MOTION_DOT":-2.3e-7,"MEAN_MOTION_DDOT":0},{"OBJECT_NAME":"EUTELSAT 7C","OBJECT_ID":"2019-034B","EPOCH":"2026-03-02T09:26:38.658336","MEAN_MOTION":1.00270229,"ECCENTRICITY":0.00033706,"INCLINATION":0.0725,"RA_OF_ASC_NODE":178.9133,"ARG_OF_PERICENTER":147.8289,"MEAN_ANOMALY":342.0592,"EPHEMERIS_TYPE":0,"CLASSIFICATION_TYPE":"U","NORAD_CAT_ID":44334,"ELEMENT_SET_NO":999,"REV_AT_EPOCH":576,"BSTAR":0,"MEAN_MOTION_DOT":3.0e-7,"MEAN_MOTION_DDOT":0},{"OBJECT_NAME":"EUTELSAT 5 WEST B","OBJECT_ID":"2019-067A","EPOCH":"2026-03-02T17:30:51.948288","MEAN_MOTION":1.00272251,"ECCENTRICITY":0.0003199,"INCLINATION":0.098,"RA_OF_ASC_NODE":308.3073,"ARG_OF_PERICENTER":40.6033,"MEAN_ANOMALY":69.2675,"EPHEMERIS_TYPE":0,"CLASSIFICATION_TYPE":"U","NORAD_CAT_ID":44624,"ELEMENT_SET_NO":999,"REV_AT_EPOCH":2336,"BSTAR":0,"MEAN_MOTION_DOT":-5.9e-7,"MEAN_MOTION_DDOT":0},{"OBJECT_NAME":"EUTELSAT KONNECT","OBJECT_ID":"2020-005B","EPOCH":"2026-03-02T14:08:45.831840","MEAN_MOTION":1.00271015,"ECCENTRICITY":0.0001032,"INCLINATION":0.0686,"RA_OF_ASC_NODE":97.521,"ARG_OF_PERICENTER":221.0529,"MEAN_ANOMALY":61.1603,"EPHEMERIS_TYPE":0,"CLASSIFICATION_TYPE":"U","NORAD_CAT_ID":45027,"ELEMENT_SET_NO":999,"REV_AT_EPOCH":2326,"BSTAR":0,"MEAN_MOTION_DOT":3.2e-7,"MEAN_MOTION_DDOT":0},{"OBJECT_NAME":"EUTELSAT QUANTUM","OBJECT_ID":"2021-069B","EPOCH":"2026-03-02T12:37:47.053920","MEAN_MOTION":1.00271278,"ECCENTRICITY":0.00029,"INCLINATION":0.0187,"RA_OF_ASC_NODE":128.2806,"ARG_OF_PERICENTER":213.5571,"MEAN_ANOMALY":55.6294,"EPHEMERIS_TYPE":0,"CLASSIFICATION_TYPE":"U","NORAD_CAT_ID":49056,"ELEMENT_SET_NO":999,"REV_AT_EPOCH":1685,"BSTAR":0,"MEAN_MOTION_DOT":0,"MEAN_MOTION_DDOT":0},{"OBJECT_NAME":"EUTELSAT KONNECT VHTS","OBJECT_ID":"2022-110A","EPOCH":"2026-03-02T17:33:06.734016","MEAN_MOTION":1.00270548,"ECCENTRICITY":0.000287,"INCLINATION":0.0577,"RA_OF_ASC_NODE":102.733,"ARG_OF_PERICENTER":211.5116,"MEAN_ANOMALY":112.2093,"EPHEMERIS_TYPE":0,"CLASSIFICATION_TYPE":"U","NORAD_CAT_ID":53765,"ELEMENT_SET_NO":999,"REV_AT_EPOCH":576,"BSTAR":0,"MEAN_MOTION_DOT":0,"MEAN_MOTION_DDOT":0},{"OBJECT_NAME":"EUTELSAT HOTBIRD 13F","OBJECT_ID":"2022-134A","EPOCH":"2026-03-02T17:35:58.958592","MEAN_MOTION":1.00271838,"ECCENTRICITY":0.0002118,"INCLINATION":0.0592,"RA_OF_ASC_NODE":296.0713,"ARG_OF_PERICENTER":60.3674,"MEAN_ANOMALY":81.0436,"EPHEMERIS_TYPE":0,"CLASSIFICATION_TYPE":"U","NORAD_CAT_ID":54048,"ELEMENT_SET_NO":999,"REV_AT_EPOCH":1230,"BSTAR":0,"MEAN_MOTION_DOT":7.0e-7,"MEAN_MOTION_DDOT":0},{"OBJECT_NAME":"EUTELSAT HOTBIRD 13G","OBJECT_ID":"2022-146A","EPOCH":"2026-03-02T15:53:20.806368","MEAN_MOTION":1.00271894,"ECCENTRICITY":0.000188,"INCLINATION":0.0496,"RA_OF_ASC_NODE":233.9645,"ARG_OF_PERICENTER":311.1412,"MEAN_ANOMALY":226.6552,"EPHEMERIS_TYPE":0,"CLASSIFICATION_TYPE":"U","NORAD_CAT_ID":54225,"ELEMENT_SET_NO":999,"REV_AT_EPOCH":639,"BSTAR":0,"MEAN_MOTION_DOT":7.0e-7,"MEAN_MOTION_DDOT":0},{"OBJECT_NAME":"EUTELSAT 10B","OBJECT_ID":"2022-157A","EPOCH":"2026-03-02T17:35:06.540576","MEAN_MOTION":1.00267461,"ECCENTRICITY":0.0001105,"INCLINATION":0.0572,"RA_OF_ASC_NODE":101.9131,"ARG_OF_PERICENTER":23.3577,"MEAN_ANOMALY":308.9654,"EPHEMERIS_TYPE":0,"CLASSIFICATION_TYPE":"U","NORAD_CAT_ID":54259,"ELEMENT_SET_NO":999,"REV_AT_EPOCH":1195,"BSTAR":0,"MEAN_MOTION_DOT":5.1e-7,"MEAN_MOTION_DDOT":0},{"OBJECT_NAME":"EUTELSAT 36D","OBJECT_ID":"2024-059A","EPOCH":"2026-03-02T17:42:28.335744","MEAN_MOTION":1.00269961,"ECCENTRICITY":3.17e-5,"INCLINATION":0.0129,"RA_OF_ASC_NODE":136.6074,"ARG_OF_PERICENTER":175.1047,"MEAN_ANOMALY":150.2665,"EPHEMERIS_TYPE":0,"CLASSIFICATION_TYPE":"U","NORAD_CAT_ID":59346,"ELEMENT_SET_NO":999,"REV_AT_EPOCH":708,"BSTAR":0,"MEAN_MOTION_DOT":1.39e-6,"MEAN_MOTION_DDOT":0}]
